[
    {
        "Altitude(m)": 553488.5218821951,
        "Argument of Periapsis(deg)": 0.0,
        "Eccentricity": 0.0,
        "Inclination(deg)": 53.0,
        "Latitude(deg)": 13.004336411161097,
        "Longitude(deg)": 35.06387347340211,
        "Mean Anomaly(deg)": -196.36360000000005,
        "RAAN(deg)": 325.0,
        "Satellite Name": "Starlink Shell 1 1440",
        "Satellite Number": 1440,
        "Semi-Major Axis(m)": 6931778.249405717,
        "Time(s)": 0
    },
    {
        "Altitude(m)": 553483.8711550971,
        "Argument of Periapsis(deg)": 0.00034857847951123687,
        "Eccentricity": 0.0,
        "Inclination(deg)": 53.0,
        "Latitude(deg)": 12.507776920763007,
        "Longitude(deg)": 35.41854183944579,
        "Mean Anomaly(deg)": -195.73676879644327,
        "RAAN(deg)": 324.9994812299225,
        "Satellite Name": "Starlink Shell 1 1440",
        "Satellite Number": 1440,
        "Semi-Major Axis(m)": 6931778.249405717,
        "Time(s)": 10
    },
    {
        "Altitude(m)": 553481.8023366672,
        "Argument of Periapsis(deg)": 0.0006971569590224737,
        "Eccentricity": 0.0,
        "Inclination(deg)": 53.0,
        "Latitude(deg)": 12.010623932395548,
        "Longitude(deg)": 35.77169709205137,
        "Mean Anomaly(deg)": -195.10993759288655,
        "RAAN(deg)": 324.9989624598451,
        "Satellite Name": "Starlink Shell 1 1440",
        "Satellite Number": 1440,
        "Semi-Major Axis(m)": 6931778.249405717,
        "Time(s)": 20
    },
    {
        "Altitude(m)": 553482.3392791853,
        "Argument of Periapsis(deg)": 0.0010457354385337105,
        "Eccentricity": 0.0,
        "Inclination(deg)": 53.0,
        "Latitude(deg)": 11.512904090790498,
        "Longitude(deg)": 36.12340453453752,
        "Mean Anomaly(deg)": -194.48310638932986,
        "RAAN(deg)": 324.99844368976756,
        "Satellite Name": "Starlink Shell 1 1440",
        "Satellite Number": 1440,
        "Semi-Major Axis(m)": 6931778.249405717,
        "Time(s)": 30
    },
    {
        "Altitude(m)": 553485.5046408518,
        "Argument of Periapsis(deg)": 0.0013943139180449475,
        "Eccentricity": 0.0,
        "Inclination(deg)": 53.0,
        "Latitude(deg)": 11.014643730658308,
        "Longitude(deg)": 36.47372934938409,
        "Mean Anomaly(deg)": -193.85627518577317,
        "RAAN(deg)": 324.99792491969004,
        "Satellite Name": "Starlink Shell 1 1440",
        "Satellite Number": 1440,
        "Semi-Major Axis(m)": 6931778.249405717,
        "Time(s)": 40
    },
    {
        "Altitude(m)": 553491.3198717879,
        "Argument of Periapsis(deg)": 0.0017428923975561844,
        "Eccentricity": 0.0,
        "Inclination(deg)": 53.0,
        "Latitude(deg)": 10.515868891582945,
        "Longitude(deg)": 36.82273561645486,
        "Mean Anomaly(deg)": -193.22944398221637,
        "RAAN(deg)": 324.99740614961263,
        "Satellite Name": "Starlink Shell 1 1440",
        "Satellite Number": 1440,
        "Semi-Major Axis(m)": 6931778.249405717,
        "Time(s)": 50
    },
    {
        "Altitude(m)": 553499.8052006313,
        "Argument of Periapsis(deg)": 0.002091470877067421,
        "Eccentricity": 0.0,
        "Inclination(deg)": 53.0,
        "Latitude(deg)": 10.016605332647783,
        "Longitude(deg)": 37.170486844022,
        "Mean Anomaly(deg)": -192.60261277865968,
        "RAAN(deg)": 324.99688737953517,
        "Satellite Name": "Starlink Shell 1 1440",
        "Satellite Number": 1440,
        "Semi-Major Axis(m)": 6931778.249405717,
        "Time(s)": 60
    },
    {
        "Altitude(m)": 553510.9796217268,
        "Argument of Periapsis(deg)": 0.0024400493565786582,
        "Eccentricity": 0.0,
        "Inclination(deg)": 53.0,
        "Latitude(deg)": 9.516878546801436,
        "Longitude(deg)": 37.517046499712116,
        "Mean Anomaly(deg)": -191.97578157510304,
        "RAAN(deg)": 324.99636860945765,
        "Satellite Name": "Starlink Shell 1 1440",
        "Satellite Number": 1440,
        "Semi-Major Axis(m)": 6931778.249405717,
        "Time(s)": 70
    },
    {
        "Altitude(m)": 553524.8608829239,
        "Argument of Periapsis(deg)": 0.002788627836089895,
        "Eccentricity": 0.0,
        "Inclination(deg)": 53.0,
        "Latitude(deg)": 9.01671377497494,
        "Longitude(deg)": 37.86247702849242,
        "Mean Anomaly(deg)": -191.34895037154627,
        "RAAN(deg)": 324.99584983938024,
        "Satellite Name": "Starlink Shell 1 1440",
        "Satellite Number": 1440,
        "Semi-Major Axis(m)": 6931778.249405717,
        "Time(s)": 80
    },
    {
        "Altitude(m)": 553541.465473995,
        "Argument of Periapsis(deg)": 0.0031372063156011316,
        "Eccentricity": 0.0,
        "Inclination(deg)": 53.0,
        "Latitude(deg)": 8.516136019966964,
        "Longitude(deg)": 38.20684038344117,
        "Mean Anomaly(deg)": -190.7221191679895,
        "RAAN(deg)": 324.9953310693027,
        "Satellite Name": "Starlink Shell 1 1440",
        "Satellite Number": 1440,
        "Semi-Major Axis(m)": 6931778.249405717,
        "Time(s)": 90
    },
    {
        "Altitude(m)": 553560.8086156694,
        "Argument of Periapsis(deg)": 0.0034857847951123688,
        "Eccentricity": 0.0,
        "Inclination(deg)": 53.0,
        "Latitude(deg)": 8.015170060106389,
        "Longitude(deg)": 38.55019855642671,
        "Mean Anomaly(deg)": -190.0952879644328,
        "RAAN(deg)": 324.99481229922526,
        "Satellite Name": "Starlink Shell 1 1440",
        "Satellite Number": 1440,
        "Semi-Major Axis(m)": 6931778.249405717,
        "Time(s)": 100
    },
    {
        "Altitude(m)": 553582.904249287,
        "Argument of Periapsis(deg)": 0.003834363274623606,
        "Eccentricity": 0.0,
        "Inclination(deg)": 53.0,
        "Latitude(deg)": 7.513840462702365,
        "Longitude(deg)": 38.89261259581844,
        "Mean Anomaly(deg)": -189.4684567608761,
        "RAAN(deg)": 324.9942935291478,
        "Satellite Name": "Starlink Shell 1 1440",
        "Satellite Number": 1440,
        "Semi-Major Axis(m)": 6931778.249405717,
        "Time(s)": 110
    },
    {
        "Altitude(m)": 553607.7650270961,
        "Argument of Periapsis(deg)": 0.004182941754134842,
        "Eccentricity": 0.0,
        "Inclination(deg)": 53.0,
        "Latitude(deg)": 7.012171597299216,
        "Longitude(deg)": 39.234143136976876,
        "Mean Anomaly(deg)": -188.84162555731942,
        "RAAN(deg)": 324.9937747590703,
        "Satellite Name": "Starlink Shell 1 1440",
        "Satellite Number": 1440,
        "Semi-Major Axis(m)": 6931778.249405717,
        "Time(s)": 120
    },
    {
        "Altitude(m)": 553635.4023031875,
        "Argument of Periapsis(deg)": 0.004531520233646079,
        "Eccentricity": 0.0,
        "Inclination(deg)": 53.0,
        "Latitude(deg)": 6.5101876487450925,
        "Longitude(deg)": 39.57485093264997,
        "Mean Anomaly(deg)": -188.2147943537626,
        "RAAN(deg)": 324.9932559889928,
        "Satellite Name": "Starlink Shell 1 1440",
        "Satellite Number": 1440,
        "Semi-Major Axis(m)": 6931778.249405717,
        "Time(s)": 130
    },
    {
        "Altitude(m)": 553665.826125064,
        "Argument of Periapsis(deg)": 0.0048800987131573164,
        "Eccentricity": 0.0,
        "Inclination(deg)": 53.0,
        "Latitude(deg)": 6.007912630084968,
        "Longitude(deg)": 39.91479587040332,
        "Mean Anomaly(deg)": -187.587963150206,
        "RAAN(deg)": 324.9927372189154,
        "Satellite Name": "Starlink Shell 1 1440",
        "Satellite Number": 1440,
        "Semi-Major Axis(m)": 6931778.249405717,
        "Time(s)": 140
    },
    {
        "Altitude(m)": 553699.04522587,
        "Argument of Periapsis(deg)": 0.005228677192668553,
        "Eccentricity": 0.0,
        "Inclination(deg)": 53.0,
        "Latitude(deg)": 5.505370395292346,
        "Longitude(deg)": 40.25403750283396,
        "Mean Anomaly(deg)": -186.96113194664923,
        "RAAN(deg)": 324.9922184488379,
        "Satellite Name": "Starlink Shell 1 1440",
        "Satellite Number": 1440,
        "Semi-Major Axis(m)": 6931778.249405717,
        "Time(s)": 150
    },
    {
        "Altitude(m)": 553735.0670172513,
        "Argument of Periapsis(deg)": 0.00557725567217979,
        "Eccentricity": 0.0,
        "Inclination(deg)": 53.0,
        "Latitude(deg)": 5.002584651853338,
        "Longitude(deg)": 40.59263557769674,
        "Mean Anomaly(deg)": -186.33430074309257,
        "RAAN(deg)": 324.99169967876037,
        "Satellite Name": "Starlink Shell 1 1440",
        "Satellite Number": 1440,
        "Semi-Major Axis(m)": 6931778.249405717,
        "Time(s)": 160
    },
    {
        "Altitude(m)": 553773.8975829202,
        "Argument of Periapsis(deg)": 0.0059258341516910265,
        "Eccentricity": 0.0,
        "Inclination(deg)": 53.0,
        "Latitude(deg)": 4.499578973207131,
        "Longitude(deg)": 40.93064905507442,
        "Mean Anomaly(deg)": -185.70746953953588,
        "RAAN(deg)": 324.99118090868296,
        "Satellite Name": "Starlink Shell 1 1440",
        "Satellite Number": 1440,
        "Semi-Major Axis(m)": 6931778.249405717,
        "Time(s)": 170
    },
    {
        "Altitude(m)": 553815.5416728157,
        "Argument of Periapsis(deg)": 0.006274412631202263,
        "Eccentricity": 0.0,
        "Inclination(deg)": 53.0,
        "Latitude(deg)": 3.9963768110641493,
        "Longitude(deg)": 41.26813663734163,
        "Mean Anomaly(deg)": -185.08063833597913,
        "RAAN(deg)": 324.9906621386055,
        "Satellite Name": "Starlink Shell 1 1440",
        "Satellite Number": 1440,
        "Semi-Major Axis(m)": 6931778.249405717,
        "Time(s)": 180
    }
]